SL-3 R/B                
1 13403U 82079B   26039.52578388  .00007103  00000+0  28667-3 0  9995
2 13403  81.1444 227.5036 0024136 265.0883  94.7595 15.24371667373259
SL-14 R/B               
1 13553U 82092B   26039.43289110  .00000724  00000+0  78554-4 0  9991
2 13553  82.5703 168.7556 0021335  41.6505  22.7893 14.86633722324582
SL-3 R/B                
1 13819U 83010B   26039.43732265  .00016024  00000+0  33338-3 0  9991
2 13819  81.1025  38.0832 0017941 143.9609 216.2849 15.45317496353423
SL-3 R/B                
1 14208U 83075B   26039.47501348  .00013774  00000+0  37187-3 0  9990
2 14208  97.6137  42.9681 0021128 339.7295  20.3108 15.37662801325667
COSMOS 1536             
1 14699U 84013A   26039.29741927  .00006890  00000+0  28712-3 0  9991
2 14699  82.5467 137.0520 0014954  31.2805 328.9318 15.23433211268143
SL-14 R/B               
1 14820U 84027B   26039.13172085  .00000519  00000+0  56431-4 0  9990
2 14820  82.5399 272.7406 0019466  72.7664 287.5681 14.85947387243247
SL-8 R/B                
1 15483U 85006B   26039.23542159  .00000299  00000+0  10799-3 0  9999
2 15483  74.0472 315.3463 0019525 238.8549 232.8369 14.37768521149790
SL-12 R/B(2)            
1 15772U 85042D   26039.50339701  .00000187  00000+0  10561-3 0  9990
2 15772  71.1087 149.3901 0034937 174.8928 260.4987 14.21974055110242
SL-14 R/B               
1 15945U 85069B   26039.46203798  .00000624  00000+0  67813-4 0  9991
2 15945  82.5241  52.4225 0017287 291.1569  68.7800 14.86398529168498
SL-16 R/B               
1 16182U 85097B   26039.54166199 -.00000079  00000+0 -15646-4 0  9991
2 16182  71.0017 201.9143 0009591 293.7352 130.4329 14.16596407 83108
SL-14 R/B               
1 16496U 86006B   26039.17757700  .00000871  00000+0  89866-4 0  9996
2 16496  82.5268 287.5152 0076973  11.6997 348.5985 14.86774656144829
COSMOS 1743             
1 16719U 86034A   26039.21536931  .00034810  00000+0  49091-3 0  9996
2 16719  82.5329 104.7110 0005097  53.7128 306.4597 15.56420485175665
