CCSDS_OMM_VERS = 2.0
CREATION_DATE  = 
ORIGINATOR     = 

OBJECT_NAME    = SL-3 R/B
OBJECT_ID      = 1982-079B
CENTER_NAME    = EARTH
REF_FRAME      = TEME
TIME_SYSTEM    = UTC
MEAN_ELEMENT_THEORY = SGP/SGP4

EPOCH          = 2026-02-08T12:37:07.727232
MEAN_MOTION    = 15.24371667
ECCENTRICITY   = .0024136
INCLINATION    = 81.1444
RA_OF_ASC_NODE = 227.5036
ARG_OF_PERICENTER = 265.0883
MEAN_ANOMALY   = 94.7595

EPHEMERIS_TYPE = 0
CLASSIFICATION_TYPE = U
NORAD_CAT_ID   = 13403
ELEMENT_SET_NO = 999
REV_AT_EPOCH   = 37325
BSTAR          = .28667E-3
MEAN_MOTION_DOT = .7103E-4
MEAN_MOTION_DDOT = 0

CCSDS_OMM_VERS = 2.0
CREATION_DATE  = 
ORIGINATOR     = 

OBJECT_NAME    = SL-14 R/B
OBJECT_ID      = 1982-092B
CENTER_NAME    = EARTH
REF_FRAME      = TEME
TIME_SYSTEM    = UTC
MEAN_ELEMENT_THEORY = SGP/SGP4

EPOCH          = 2026-02-08T10:23:21.791040
MEAN_MOTION    = 14.86633722
ECCENTRICITY   = .0021335
INCLINATION    = 82.5703
RA_OF_ASC_NODE = 168.7556
ARG_OF_PERICENTER = 41.6505
MEAN_ANOMALY   = 22.7893

EPHEMERIS_TYPE = 0
CLASSIFICATION_TYPE = U
NORAD_CAT_ID   = 13553
ELEMENT_SET_NO = 999
REV_AT_EPOCH   = 32458
BSTAR          = .78554E-4
MEAN_MOTION_DOT = .724E-5
MEAN_MOTION_DDOT = 0

CCSDS_OMM_VERS = 2.0
CREATION_DATE  = 
ORIGINATOR     = 

OBJECT_NAME    = SL-3 R/B
OBJECT_ID      = 1983-010B
CENTER_NAME    = EARTH
REF_FRAME      = TEME
TIME_SYSTEM    = UTC
MEAN_ELEMENT_THEORY = SGP/SGP4

EPOCH          = 2026-02-08T10:29:44.676960
MEAN_MOTION    = 15.45317496
ECCENTRICITY   = .0017941
INCLINATION    = 81.1025
RA_OF_ASC_NODE = 38.0832
ARG_OF_PERICENTER = 143.9609
MEAN_ANOMALY   = 216.2849

EPHEMERIS_TYPE = 0
CLASSIFICATION_TYPE = U
NORAD_CAT_ID   = 13819
ELEMENT_SET_NO = 999
REV_AT_EPOCH   = 35342
BSTAR          = .33338E-3
MEAN_MOTION_DOT = .16024E-3
MEAN_MOTION_DDOT = 0

CCSDS_OMM_VERS = 2.0
CREATION_DATE  = 
ORIGINATOR     = 

OBJECT_NAME    = SL-3 R/B
OBJECT_ID      = 1983-075B
CENTER_NAME    = EARTH
REF_FRAME      = TEME
TIME_SYSTEM    = UTC
MEAN_ELEMENT_THEORY = SGP/SGP4

EPOCH          = 2026-02-08T11:24:01.164672
MEAN_MOTION    = 15.37662801
ECCENTRICITY   = .0021128
INCLINATION    = 97.6137
RA_OF_ASC_NODE = 42.9681
ARG_OF_PERICENTER = 339.7295
MEAN_ANOMALY   = 20.3108

EPHEMERIS_TYPE = 0
CLASSIFICATION_TYPE = U
NORAD_CAT_ID   = 14208
ELEMENT_SET_NO = 999
REV_AT_EPOCH   = 32566
BSTAR          = .37187E-3
MEAN_MOTION_DOT = .13774E-3
MEAN_MOTION_DDOT = 0

CCSDS_OMM_VERS = 2.0
CREATION_DATE  = 
ORIGINATOR     = 

OBJECT_NAME    = COSMOS 1536
OBJECT_ID      = 1984-013A
CENTER_NAME    = EARTH
REF_FRAME      = TEME
TIME_SYSTEM    = UTC
MEAN_ELEMENT_THEORY = SGP/SGP4

EPOCH          = 2026-02-08T07:08:17.024928
MEAN_MOTION    = 15.23433211
ECCENTRICITY   = .0014954
INCLINATION    = 82.5467
RA_OF_ASC_NODE = 137.0520
ARG_OF_PERICENTER = 31.2805
MEAN_ANOMALY   = 328.9318

EPHEMERIS_TYPE = 0
CLASSIFICATION_TYPE = U
NORAD_CAT_ID   = 14699
ELEMENT_SET_NO = 999
REV_AT_EPOCH   = 26814
BSTAR          = .28712E-3
MEAN_MOTION_DOT = .689E-4
MEAN_MOTION_DDOT = 0

CCSDS_OMM_VERS = 2.0
CREATION_DATE  = 
ORIGINATOR     = 

OBJECT_NAME    = SL-14 R/B
OBJECT_ID      = 1984-027B
CENTER_NAME    = EARTH
REF_FRAME      = TEME
TIME_SYSTEM    = UTC
MEAN_ELEMENT_THEORY = SGP/SGP4

EPOCH          = 2026-02-08T03:09:40.681440
MEAN_MOTION    = 14.85947387
ECCENTRICITY   = .00194661
INCLINATION    = 82.5399
RA_OF_ASC_NODE = 272.7406
ARG_OF_PERICENTER = 72.7664
MEAN_ANOMALY   = 287.5681

EPHEMERIS_TYPE = 0
CLASSIFICATION_TYPE = U
NORAD_CAT_ID   = 14820
ELEMENT_SET_NO = 999
REV_AT_EPOCH   = 24324
BSTAR          = .56431047E-4
MEAN_MOTION_DOT = .519E-5
MEAN_MOTION_DDOT = 0

CCSDS_OMM_VERS = 2.0
CREATION_DATE  = 
ORIGINATOR     = 

OBJECT_NAME    = SL-8 R/B
OBJECT_ID      = 1985-006B
CENTER_NAME    = EARTH
REF_FRAME      = TEME
TIME_SYSTEM    = UTC
MEAN_ELEMENT_THEORY = SGP/SGP4

EPOCH          = 2026-02-08T05:39:00.425376
MEAN_MOTION    = 14.37768521
ECCENTRICITY   = .0019525
INCLINATION    = 74.0472
RA_OF_ASC_NODE = 315.3463
ARG_OF_PERICENTER = 238.8549
MEAN_ANOMALY   = 232.8369

EPHEMERIS_TYPE = 0
CLASSIFICATION_TYPE = U
NORAD_CAT_ID   = 15483
ELEMENT_SET_NO = 999
REV_AT_EPOCH   = 14979
BSTAR          = .10799E-3
MEAN_MOTION_DOT = .299E-5
MEAN_MOTION_DDOT = 0

CCSDS_OMM_VERS = 2.0
CREATION_DATE  = 
ORIGINATOR     = 

OBJECT_NAME    = SL-12 R/B(2)
OBJECT_ID      = 1985-042D
CENTER_NAME    = EARTH
REF_FRAME      = TEME
TIME_SYSTEM    = UTC
MEAN_ELEMENT_THEORY = SGP/SGP4

EPOCH          = 2026-02-08T12:04:53.501664
MEAN_MOTION    = 14.21974055
ECCENTRICITY   = .0034937
INCLINATION    = 71.1087
RA_OF_ASC_NODE = 149.3901
ARG_OF_PERICENTER = 174.8928
MEAN_ANOMALY   = 260.4987

EPHEMERIS_TYPE = 0
CLASSIFICATION_TYPE = U
NORAD_CAT_ID   = 15772
ELEMENT_SET_NO = 999
REV_AT_EPOCH   = 11024
BSTAR          = .10561E-3
MEAN_MOTION_DOT = .187E-5
MEAN_MOTION_DDOT = 0

CCSDS_OMM_VERS = 2.0
CREATION_DATE  = 
ORIGINATOR     = 

OBJECT_NAME    = SL-14 R/B
OBJECT_ID      = 1985-069B
CENTER_NAME    = EARTH
REF_FRAME      = TEME
TIME_SYSTEM    = UTC
MEAN_ELEMENT_THEORY = SGP/SGP4

EPOCH          = 2026-02-08T11:05:20.081472
MEAN_MOTION    = 14.86398529
ECCENTRICITY   = .0017287
INCLINATION    = 82.5241
RA_OF_ASC_NODE = 52.4225
ARG_OF_PERICENTER = 291.1569
MEAN_ANOMALY   = 68.7800

EPHEMERIS_TYPE = 0
CLASSIFICATION_TYPE = U
NORAD_CAT_ID   = 15945
ELEMENT_SET_NO = 999
REV_AT_EPOCH   = 16849
BSTAR          = .67813E-4
MEAN_MOTION_DOT = .624E-5
MEAN_MOTION_DDOT = 0

CCSDS_OMM_VERS = 2.0
CREATION_DATE  = 
ORIGINATOR     = 

OBJECT_NAME    = SL-16 R/B
OBJECT_ID      = 1985-097B
CENTER_NAME    = EARTH
REF_FRAME      = TEME
TIME_SYSTEM    = UTC
MEAN_ELEMENT_THEORY = SGP/SGP4

EPOCH          = 2026-02-08T12:59:59.595936
MEAN_MOTION    = 14.16596407
ECCENTRICITY   = .0009591
INCLINATION    = 71.0017
RA_OF_ASC_NODE = 201.9143
ARG_OF_PERICENTER = 293.7352
MEAN_ANOMALY   = 130.4329

EPHEMERIS_TYPE = 0
CLASSIFICATION_TYPE = U
NORAD_CAT_ID   = 16182
ELEMENT_SET_NO = 999
REV_AT_EPOCH   = 8310
BSTAR          = -.15646E-4
MEAN_MOTION_DOT = -.79E-6
MEAN_MOTION_DDOT = 0

CCSDS_OMM_VERS = 2.0
CREATION_DATE  = 
ORIGINATOR     = 

OBJECT_NAME    = SL-14 R/B
OBJECT_ID      = 1986-006B
CENTER_NAME    = EARTH
REF_FRAME      = TEME
TIME_SYSTEM    = UTC
MEAN_ELEMENT_THEORY = SGP/SGP4

EPOCH          = 2026-02-08T04:15:42.652800
MEAN_MOTION    = 14.86774656
ECCENTRICITY   = .00769731
INCLINATION    = 82.5268
RA_OF_ASC_NODE = 287.5152
ARG_OF_PERICENTER = 11.6997
MEAN_ANOMALY   = 348.5985

EPHEMERIS_TYPE = 0
CLASSIFICATION_TYPE = U
NORAD_CAT_ID   = 16496
ELEMENT_SET_NO = 999
REV_AT_EPOCH   = 14482
BSTAR          = .89865922E-4
MEAN_MOTION_DOT = .871E-5
MEAN_MOTION_DDOT = 0

CCSDS_OMM_VERS = 2.0
CREATION_DATE  = 
ORIGINATOR     = 

OBJECT_NAME    = COSMOS 1743
OBJECT_ID      = 1986-034A
CENTER_NAME    = EARTH
REF_FRAME      = TEME
TIME_SYSTEM    = UTC
MEAN_ELEMENT_THEORY = SGP/SGP4

EPOCH          = 2026-02-08T05:10:07.908384
MEAN_MOTION    = 15.56420485
ECCENTRICITY   = .0005097
INCLINATION    = 82.5329
RA_OF_ASC_NODE = 104.7110
ARG_OF_PERICENTER = 53.7128
MEAN_ANOMALY   = 306.4597

EPHEMERIS_TYPE = 0
CLASSIFICATION_TYPE = U
NORAD_CAT_ID   = 16719
ELEMENT_SET_NO = 999
REV_AT_EPOCH   = 17566
BSTAR          = .49091E-3
MEAN_MOTION_DOT = .3481E-3
MEAN_MOTION_DDOT = 0

